{"type": "FeatureCollection", "features": [ {"type": "Feature", "properties": {"norad_id": 37834, "name": "INTELSAT 18 (IS-18)", "group": "intelsat", "lat": 0.038165554996104835, "lon": 71.94654076792919, "alt_km": 35794.82961766864, "timestamp": "2025-12-09T11:33:54.468263+00:00", "meta": {"OBJECT_NAME": "INTELSAT 18 (IS-18)", "OBJECT_ID": "2011-056A", "EPOCH": "2025-12-09T02:26:43.035072", "MEAN_MOTION": 1.00271197, "ECCENTRICITY": 0.0002074, "INCLINATION": 0.0176, "RA_OF_ASC_NODE": 340.5997, "ARG_OF_PERICENTER": 282.5896, "MEAN_ANOMALY": 31.5846, "EPHEMERIS_TYPE": 0, "CLASSIFICATION_TYPE": "U", "NORAD_CAT_ID": 37834, "ELEMENT_SET_NO": 999, "REV_AT_EPOCH": 5190, "BSTAR": 0, "MEAN_MOTION_DOT": 5.5e-07, "MEAN_MOTION_DDOT": 0}, "tle": {"line1": "1 37834U 11056A   25343.10188698  .00000055  00000+0  00000+0 0  9994", "line2": "2 37834   0.0176 340.5997 0002074 282.5896  31.5846  1.00271197 51901"}}, "geometry": {"type": "Point", "coordinates": [71.94654076792919, 0.038165554996104835]}}, {"type": "Feature", "properties": {"norad_id": 38098, "name": "INTELSAT 22 (IS-22)", "group": "intelsat", "lat": 0.0019963517304237978, "lon": -35.91952821231173, "alt_km": 35782.112318738, "timestamp": "2025-12-09T11:33:54.468276+00:00", "meta": {"OBJECT_NAME": "INTELSAT 22 (IS-22)", "OBJECT_ID": "2012-011A", "EPOCH": "2025-12-09T01:55:53.146272", "MEAN_MOTION": 1.00274321, "ECCENTRICITY": 0.0001549, "INCLINATION": 0.0174, "RA_OF_ASC_NODE": 307.8083, "ARG_OF_PERICENTER": 316.0442, "MEAN_ANOMALY": 275.3111, "EPHEMERIS_TYPE": 0, "CLASSIFICATION_TYPE": "U", "NORAD_CAT_ID": 38098, "ELEMENT_SET_NO": 999, "REV_AT_EPOCH": 528, "BSTAR": 0, "MEAN_MOTION_DOT": -5.7e-07, "MEAN_MOTION_DDOT": 0}, "tle": {"line1": "1 38098U 12011A   25343.08047623 -.00000057  00000+0  00000+0 0  9991", "line2": "2 38098   0.0174 307.8083 0001549 316.0442 275.3111  1.00274321  5285"}}, "geometry": {"type": "Point", "coordinates": [-35.91952821231173, 0.0019963517304237978]}}, {"type": "Feature", "properties": {"norad_id": 38356, "name": "INTELSAT 19 (IS-19)", "group": "intelsat", "lat": 0.029437046862742285, "lon": 57.96867429005504, "alt_km": 35799.41514299541, "timestamp": "2025-12-09T11:33:54.468288+00:00", "meta": {"OBJECT_NAME": "INTELSAT 19 (IS-19)", "OBJECT_ID": "2012-030A", "EPOCH": "2025-12-09T03:34:38.599104", "MEAN_MOTION": 1.00271628, "ECCENTRICITY": 0.0003541, "INCLINATION": 0.0095, "RA_OF_ASC_NODE": 336.3973, "ARG_OF_PERICENTER": 289.1389, "MEAN_ANOMALY": 32.2731, "EPHEMERIS_TYPE": 0, "CLASSIFICATION_TYPE": "U", "NORAD_CAT_ID": 38356, "ELEMENT_SET_NO": 999, "REV_AT_EPOCH": 4854, "BSTAR": 0, "MEAN_MOTION_DOT": -5.4e-07, "MEAN_MOTION_DDOT": 0}, "tle": {"line1": "1 38356U 12030A   25343.14905786 -.00000054  00000+0  00000+0 0  9996", "line2": "2 38356   0.0095 336.3973 0003541 289.1389  32.2731  1.00271628 48544"}}, "geometry": {"type": "Point", "coordinates": [57.96867429005504, 0.029437046862742285]}}, {"type": "Feature", "properties": {"norad_id": 38740, "name": "INTELSAT 20 (IS-20)", "group": "intelsat", "lat": -0.009210750076523536, "lon": -39.51973981951687, "alt_km": 35796.42652330154, "timestamp": "2025-12-09T11:33:54.468300+00:00", "meta": {"OBJECT_NAME": "INTELSAT 20 (IS-20)", "OBJECT_ID": "2012-043A", "EPOCH": "2025-12-09T03:37:36.247008", "MEAN_MOTION": 1.00269877, "ECCENTRICITY": 0.0003101, "INCLINATION": 0.001, "RA_OF_ASC_NODE": 36.655, "ARG_OF_PERICENTER": 144.7813, "MEAN_ANOMALY": 19.6244, "EPHEMERIS_TYPE": 0, "CLASSIFICATION_TYPE": "U", "NORAD_CAT_ID": 38740, "ELEMENT_SET_NO": 999, "REV_AT_EPOCH": 4884, "BSTAR": 0, "MEAN_MOTION_DOT": -2.2e-07, "MEAN_MOTION_DDOT": 0}, "tle": {"line1": "1 38740U 12043A   25343.15111397 -.00000022  00000+0  00000+0 0  9990", "line2": "2 38740   0.0010  36.6550 0003101 144.7813  19.6244  1.00269877 48843"}}, "geometry": {"type": "Point", "coordinates": [-39.51973981951687, -0.009210750076523536]}}, {"type": "Feature", "properties": {"norad_id": 38749, "name": "INTELSAT 21 (IS-21)", "group": "intelsat", "lat": -0.0018372552211449451, "lon": -166.07444663806376, "alt_km": 35782.06906839256, "timestamp": "2025-12-09T11:33:54.468311+00:00", "meta": {"OBJECT_NAME": "INTELSAT 21 (IS-21)", "OBJECT_ID": "2012-045A", "EPOCH": "2025-12-09T03:40:38.494848", "MEAN_MOTION": 1.00270478, "ECCENTRICITY": 0.0002174, "INCLINATION": 0.0113, "RA_OF_ASC_NODE": 32.5169, "ARG_OF_PERICENTER": 222.6895, "MEAN_ANOMALY": 180.1056, "EPHEMERIS_TYPE": 0, "CLASSIFICATION_TYPE": "U", "NORAD_CAT_ID": 38749, "ELEMENT_SET_NO": 999, "REV_AT_EPOCH": 4861, "BSTAR": 0, "MEAN_MOTION_DOT": -2.83e-06, "MEAN_MOTION_DDOT": 0}, "tle": {"line1": "1 38749U 12045A   25343.15322332 -.00000283  00000+0  00000+0 0  9993", "line2": "2 38749   0.0113  32.5169 0002174 222.6895 180.1056  1.00270478 48611"}}, "geometry": {"type": "Point", "coordinates": [-166.07444663806376, -0.0018372552211449451]}}, {"type": "Feature", "properties": {"norad_id": 38867, "name": "INTELSAT 23 (IS-23)", "group": "intelsat", "lat": 0.02212059696876918, "lon": -161.07994382083896, "alt_km": 35780.67981244835, "timestamp": "2025-12-09T11:33:54.468337+00:00", "meta": {"OBJECT_NAME": "INTELSAT 23 (IS-23)", "OBJECT_ID": "2012-057A", "EPOCH": "2025-12-09T04:38:57.249024", "MEAN_MOTION": 1.00260511, "ECCENTRICITY": 0.0002044, "INCLINATION": 0.0419, "RA_OF_ASC_NODE": 93.2966, "ARG_OF_PERICENTER": 103.9407, "MEAN_ANOMALY": 257.6748, "EPHEMERIS_TYPE": 0, "CLASSIFICATION_TYPE": "U", "NORAD_CAT_ID": 38867, "ELEMENT_SET_NO": 999, "REV_AT_EPOCH": 4805, "BSTAR": 0, "MEAN_MOTION_DOT": -2.83e-06, "MEAN_MOTION_DDOT": 0}, "tle": {"line1": "1 38867U 12057A   25343.19371816 -.00000283  00000+0  00000+0 0  9992", "line2": "2 38867   0.0419  93.2966 0002044 103.9407 257.6748  1.00260511 48059"}}, "geometry": {"type": "Point", "coordinates": [-161.07994382083896, 0.02212059696876918]}}, {"type": "Feature", "properties": {"norad_id": 39360, "name": "FM-6", "group": "intelsat", "lat": 0.011658915942941142, "lon": 135.78304312858447, "alt_km": 35775.77072229263, "timestamp": "2025-12-09T11:33:54.468351+00:00", "meta": {"OBJECT_NAME": "FM-6", "OBJECT_ID": "2013-058A", "EPOCH": "2025-12-09T01:36:38.760192", "MEAN_MOTION": 1.00271481, "ECCENTRICITY": 0.0003014, "INCLINATION": 0.0026, "RA_OF_ASC_NODE": 36.2279, "ARG_OF_PERICENTER": 134.4121, "MEAN_ANOMALY": 175.4422, "EPHEMERIS_TYPE": 0, "CLASSIFICATION_TYPE": "U", "NORAD_CAT_ID": 39360, "ELEMENT_SET_NO": 999, "REV_AT_EPOCH": 4416, "BSTAR": 0, "MEAN_MOTION_DOT": -1.5e-07, "MEAN_MOTION_DDOT": 0}, "tle": {"line1": "1 39360U 13058A   25343.06711528 -.00000015  00000+0  00000+0 0  9990", "line2": "2 39360   0.0026  36.2279 0003014 134.4121 175.4422  1.00271481 44168"}}, "geometry": {"type": "Point", "coordinates": [135.78304312858447, 0.011658915942941142]}}, {"type": "Feature", "properties": {"norad_id": 40271, "name": "INTELSAT 30 (IS-30)", "group": "intelsat", "lat": 0.01296956647049436, "lon": 156.905200990325, "alt_km": 35783.94039364833, "timestamp": "2025-12-09T11:33:54.468364+00:00", "meta": {"OBJECT_NAME": "INTELSAT 30 (IS-30)", "OBJECT_ID": "2014-062A", "EPOCH": "2025-12-09T04:04:38.821728", "MEAN_MOTION": 1.00272205, "ECCENTRICITY": 0.000131, "INCLINATION": 0.013, "RA_OF_ASC_NODE": 15.3198, "ARG_OF_PERICENTER": 73.1869, "MEAN_ANOMALY": 315.7647, "EPHEMERIS_TYPE": 0, "CLASSIFICATION_TYPE": "U", "NORAD_CAT_ID": 40271, "ELEMENT_SET_NO": 999, "REV_AT_EPOCH": 487, "BSTAR": 0, "MEAN_MOTION_DOT": -1.49e-06, "MEAN_MOTION_DDOT": 0}, "tle": {"line1": "1 40271U 14062A   25343.16989377 -.00000149  00000+0  00000+0 0  9997", "line2": "2 40271   0.0130  15.3198 0001310  73.1869 315.7647  1.00272205  4877"}}, "geometry": {"type": "Point", "coordinates": [156.905200990325, 0.01296956647049436]}}, {"type": "Feature", "properties": {"norad_id": 40333, "name": "DIRECTV 14", "group": "intelsat", "lat": 0.0013475856493266915, "lon": 152.72388419634078, "alt_km": 35786.17158690734, "timestamp": "2025-12-09T11:33:54.468376+00:00", "meta": {"OBJECT_NAME": "DIRECTV 14", "OBJECT_ID": "2014-078B", "EPOCH": "2025-12-09T04:26:37.402368", "MEAN_MOTION": 1.00269626, "ECCENTRICITY": 2.67e-05, "INCLINATION": 0.0173, "RA_OF_ASC_NODE": 330.7931, "ARG_OF_PERICENTER": 243.889, "MEAN_ANOMALY": 190.9367, "EPHEMERIS_TYPE": 0, "CLASSIFICATION_TYPE": "U", "NORAD_CAT_ID": 40333, "ELEMENT_SET_NO": 999, "REV_AT_EPOCH": 4013, "BSTAR": 0, "MEAN_MOTION_DOT": -1.23e-06, "MEAN_MOTION_DDOT": 0}, "tle": {"line1": "1 40333U 14078B   25343.18515512 -.00000123  00000+0  00000+0 0  9993", "line2": "2 40333   0.0173 330.7931 0000267 243.8890 190.9367  1.00269626 40136"}}, "geometry": {"type": "Point", "coordinates": [152.72388419634078, 0.0013475856493266915]}}, {"type": "Feature", "properties": {"norad_id": 40663, "name": "DIRECTV 15", "group": "intelsat", "lat": 0.03556060692781175, "lon": 149.07503807957025, "alt_km": 35787.86875882265, "timestamp": "2025-12-09T11:33:54.468388+00:00", "meta": {"OBJECT_NAME": "DIRECTV 15", "OBJECT_ID": "2015-026A", "EPOCH": "2025-12-09T04:12:38.528352", "MEAN_MOTION": 1.00268962, "ECCENTRICITY": 3.18e-05, "INCLINATION": 0.0384, "RA_OF_ASC_NODE": 80.3098, "ARG_OF_PERICENTER": 206.6762, "MEAN_ANOMALY": 111.4795, "EPHEMERIS_TYPE": 0, "CLASSIFICATION_TYPE": "U", "NORAD_CAT_ID": 40663, "ELEMENT_SET_NO": 999, "REV_AT_EPOCH": 3855, "BSTAR": 0, "MEAN_MOTION_DOT": -1e-06, "MEAN_MOTION_DDOT": 0}, "tle": {"line1": "1 40663U 15026A   25343.17544593 -.00000100  00000+0  00000+0 0  9998", "line2": "2 40663   0.0384  80.3098 0000318 206.6762 111.4795  1.00268962 38558"}}, "geometry": {"type": "Point", "coordinates": [149.07503807957025, 0.03556060692781175]}}]}